{
  "type": "FeatureCollection",
  "features": [
    {
      "type": "Feature",
      "properties": {
        "norad_id": 37320,
        "name": "COSMOS 2251 DEB",
        "group": "cosmos-2251-debris",
        "lat": -36.401113171171374,
        "lon": -149.26122841775185,
        "alt_km": 607.0810512278667,
        "timestamp": "2025-12-10T07:43:55.176842+00:00",
        "meta_object_name": "COSMOS 2251 DEB",
        "meta_object_id": "1993-036BKL",
        "meta_epoch": "2025-12-07T10:04:58.850112",
        "meta_mean_motion": 14.78679149,
        "meta_eccentricity": 0.00469494,
        "meta_inclination": 74.0461,
        "meta_ra_of_asc_node": 228.6135,
        "meta_arg_of_pericenter": 316.7124,
        "meta_mean_anomaly": 43.0365,
        "meta_ephemeris_type": 0,
        "meta_classification_type": "U",
        "meta_norad_cat_id": 37320,
        "meta_element_set_no": 999,
        "meta_rev_at_epoch": 66068,
        "meta_bstar": 0.0013976753,
        "meta_mean_motion_dot": 0.00010421,
        "meta_mean_motion_ddot": 0,
        "tle_line1": "1 37320U 93036BKL 25341.42012558  .00010421  00000+0  13977-2 0  9994",
        "tle_line2": "2 37320  74.0461 228.6135 0046949 316.7124  43.0365 14.78679149660685"
      },
      "geometry": {
        "type": "Point",
        "coordinates": [
          -149.26122841775185,
          -36.401113171171374
        ]
      }
    },
    {
      "type": "Feature",
      "properties": {
        "norad_id": 37326,
        "name": "COSMOS 2251 DEB",
        "group": "cosmos-2251-debris",
        "lat": -40.92162596282408,
        "lon": -35.05698052356891,
        "alt_km": 728.4916485953154,
        "timestamp": "2025-12-10T07:43:55.176852+00:00",
        "meta_object_name": "COSMOS 2251 DEB",
        "meta_object_id": "1993-036BKS",
        "meta_epoch": "2025-12-09T17:08:40.531200",
        "meta_mean_motion": 14.61553594,
        "meta_eccentricity": 0.0054797,
        "meta_inclination": 74.0258,
        "meta_ra_of_asc_node": 340.484,
        "meta_arg_of_pericenter": 110.429,
        "meta_mean_anomaly": 250.2773,
        "meta_ephemeris_type": 0,
        "meta_classification_type": "U",
        "meta_norad_cat_id": 37326,
        "meta_element_set_no": 999,
        "meta_rev_at_epoch": 85439,
        "meta_bstar": 0.00082516,
        "meta_mean_motion_dot": 4.157e-05,
        "meta_mean_motion_ddot": 0,
        "tle_line1": "1 37326U 93036BKS 25343.71435800  .00004157  00000+0  82516-3 0  9998",
        "tle_line2": "2 37326  74.0258 340.4840 0054797 110.4290 250.2773 14.61553594854399"
      },
      "geometry": {
        "type": "Point",
        "coordinates": [
          -35.05698052356891,
          -40.92162596282408
        ]
      }
    },
    {
      "type": "Feature",
      "properties": {
        "norad_id": 37330,
        "name": "COSMOS 2251 DEB",
        "group": "cosmos-2251-debris",
        "lat": -27.191419220688378,
        "lon": -68.76268969918348,
        "alt_km": 740.4827676156774,
        "timestamp": "2025-12-10T07:43:55.176862+00:00",
        "meta_object_name": "COSMOS 2251 DEB",
        "meta_object_id": "1993-036BKW",
        "meta_epoch": "2025-12-08T14:44:12.757056",
        "meta_mean_motion": 14.59521863,
        "meta_eccentricity": 0.0057164,
        "meta_inclination": 74.0185,
        "meta_ra_of_asc_node": 302.963,
        "meta_arg_of_pericenter": 152.6468,
        "meta_mean_anomaly": 207.7728,
        "meta_ephemeris_type": 0,
        "meta_classification_type": "U",
        "meta_norad_cat_id": 37330,
        "meta_element_set_no": 999,
        "meta_rev_at_epoch": 86308,
        "meta_bstar": 0.00058808,
        "meta_mean_motion_dot": 2.827e-05,
        "meta_mean_motion_ddot": 0,
        "tle_line1": "1 37330U 93036BKW 25342.61403654  .00002827  00000+0  58808-3 0  9992",
        "tle_line2": "2 37330  74.0185 302.9630 0057164 152.6468 207.7728 14.59521863863083"
      },
      "geometry": {
        "type": "Point",
        "coordinates": [
          -68.76268969918348,
          -27.191419220688378
        ]
      }
    },
    {
      "type": "Feature",
      "properties": {
        "norad_id": 37331,
        "name": "COSMOS 2251 DEB",
        "group": "cosmos-2251-debris",
        "lat": -50.167510085352774,
        "lon": 52.27559090219747,
        "alt_km": 811.7091541246373,
        "timestamp": "2025-12-10T07:43:55.176872+00:00",
        "meta_object_name": "COSMOS 2251 DEB",
        "meta_object_id": "1993-036BKX",
        "meta_epoch": "2025-12-08T12:28:40.679328",
        "meta_mean_motion": 14.35004102,
        "meta_eccentricity": 0.0054894,
        "meta_inclination": 74.0752,
        "meta_ra_of_asc_node": 75.5859,
        "meta_arg_of_pericenter": 91.1646,
        "meta_mean_anomaly": 269.5796,
        "meta_ephemeris_type": 0,
        "meta_classification_type": "U",
        "meta_norad_cat_id": 37331,
        "meta_element_set_no": 999,
        "meta_rev_at_epoch": 84699,
        "meta_bstar": 0.00094274204,
        "meta_mean_motion_dot": 2.707e-05,
        "meta_mean_motion_ddot": 0,
        "tle_line1": "1 37331U 93036BKX 25342.51991527  .00002707  00000+0  94274-3 0  9997",
        "tle_line2": "2 37331  74.0752  75.5859 0054894  91.1646 269.5796 14.35004102846990"
      },
      "geometry": {
        "type": "Point",
        "coordinates": [
          52.27559090219747,
          -50.167510085352774
        ]
      }
    },
    {
      "type": "Feature",
      "properties": {
        "norad_id": 37336,
        "name": "COSMOS 2251 DEB",
        "group": "cosmos-2251-debris",
        "lat": -49.9799426600294,
        "lon": -44.29808495053003,
        "alt_km": 794.971348607125,
        "timestamp": "2025-12-10T07:43:55.176882+00:00",
        "meta_object_name": "COSMOS 2251 DEB",
        "meta_object_id": "1993-036BLC",
        "meta_epoch": "2025-12-09T16:53:45.179232",
        "meta_mean_motion": 14.32756828,
        "meta_eccentricity": 0.0028757,
        "meta_inclination": 74.0407,
        "meta_ra_of_asc_node": 336.7551,
        "meta_arg_of_pericenter": 55.3677,
        "meta_mean_anomaly": 305.0179,
        "meta_ephemeris_type": 0,
        "meta_classification_type": "U",
        "meta_norad_cat_id": 37336,
        "meta_element_set_no": 999,
        "meta_rev_at_epoch": 65076,
        "meta_bstar": 0.00013225,
        "meta_mean_motion_dot": 3.36e-06,
        "meta_mean_motion_ddot": 0,
        "tle_line1": "1 37336U 93036BLC 25343.70399513  .00000336  00000+0  13225-3 0  9994",
        "tle_line2": "2 37336  74.0407 336.7551 0028757  55.3677 305.0179 14.32756828650763"
      },
      "geometry": {
        "type": "Point",
        "coordinates": [
          -44.29808495053003,
          -49.9799426600294
        ]
      }
    },
    {
      "type": "Feature",
      "properties": {
        "norad_id": 37340,
        "name": "COSMOS 2251 DEB",
        "group": "cosmos-2251-debris",
        "lat": 45.76947364370462,
        "lon": 84.49016066914963,
        "alt_km": 769.574873159554,
        "timestamp": "2025-12-10T07:43:55.176892+00:00",
        "meta_object_name": "COSMOS 2251 DEB",
        "meta_object_id": "1993-036BLG",
        "meta_epoch": "2025-12-09T04:23:15.351648",
        "meta_mean_motion": 14.36915689,
        "meta_eccentricity": 0.00176046,
        "meta_inclination": 74.0253,
        "meta_ra_of_asc_node": 283.6981,
        "meta_arg_of_pericenter": 19.5948,
        "meta_mean_anomaly": 340.5878,
        "meta_ephemeris_type": 0,
        "meta_classification_type": "U",
        "meta_norad_cat_id": 37340,
        "meta_element_set_no": 999,
        "meta_rev_at_epoch": 84016,
        "meta_bstar": 0.00031830521,
        "meta_mean_motion_dot": 9.17e-06,
        "meta_mean_motion_ddot": 0,
        "tle_line1": "1 37340U 93036BLG 25343.18281657  .00000917  00000+0  31831-3 0  9998",
        "tle_line2": "2 37340  74.0253 283.6981 0017604  19.5948 340.5878 14.36915689840167"
      },
      "geometry": {
        "type": "Point",
        "coordinates": [
          84.49016066914963,
          45.76947364370462
        ]
      }
    },
    {
      "type": "Feature",
      "properties": {
        "norad_id": 37483,
        "name": "COSMOS 2251 DEB",
        "group": "cosmos-2251-debris",
        "lat": -6.184915372542922,
        "lon": -30.36913340756442,
        "alt_km": 815.081957502648,
        "timestamp": "2025-12-10T07:43:55.176902+00:00",
        "meta_object_name": "COSMOS 2251 DEB",
        "meta_object_id": "1993-036BLL",
        "meta_epoch": "2025-12-09T17:33:52.143264",
        "meta_mean_motion": 14.43549902,
        "meta_eccentricity": 0.0092962,
        "meta_inclination": 73.9727,
        "meta_ra_of_asc_node": 148.9468,
        "meta_arg_of_pericenter": 356.1236,
        "meta_mean_anomaly": 3.9188,
        "meta_ephemeris_type": 0,
        "meta_classification_type": "U",
        "meta_norad_cat_id": 37483,
        "meta_element_set_no": 999,
        "meta_rev_at_epoch": 65236,
        "meta_bstar": 0.00034624,
        "meta_mean_motion_dot": 1.207e-05,
        "meta_mean_motion_ddot": 0,
        "tle_line1": "1 37483U 93036BLL 25343.73185351  .00001207  00000+0  34624-3 0  9997",
        "tle_line2": "2 37483  73.9727 148.9468 0092962 356.1236   3.9188 14.43549902652368"
      },
      "geometry": {
        "type": "Point",
        "coordinates": [
          -30.36913340756442,
          -6.184915372542922
        ]
      }
    }
  ]
}